1 27424U 02022A   10040.04142233  .00000076  00000-0  26823-4 0  5566
2 27424 098.2054 343.4448 0001631 097.7525 262.3853 14.57113898413256